COSMOS 2413 (712)       
1 28509U 04053B   16145.18283635  .00000068  00000-0  00000+0 0  9992
2 28509  63.1275 190.9564 0005319 177.2340 261.1999  2.13101931 88796
COSMOS 2419 (714)       
1 28915U 05050A   16145.16522539 -.00000004  00000-0  00000+0 0  9999
2 28915  65.3126  78.9744 0017171 348.4789  79.8654  2.13115694 81043
COSMOS 2425 (716)       
1 29670U 06062A   16144.73960565 -.00000023  00000-0  10000-3 0  9995
2 29670  65.6442 317.9753 0021527 351.7650 168.2877  2.13104918 73235
COSMOS 2426 (717)       
1 29671U 06062B   16144.28191050 -.00000025  00000-0  10000-3 0  9993
2 29671  65.6622 318.0722 0017132 157.4870 232.5277  2.13102915 73230
COSMOS 2424 (715)       
1 29672U 06062C   16144.45655213 -.00000024  00000-0  10000-3 0  9998
2 29672  65.6460 317.9952 0016571 156.0770 184.2785  2.13102196 73221
COSMOS 2433 (720)       
1 32275U 07052A   16144.77524459 -.00000007  00000-0  10000-3 0  9994
2 32275  65.3274  78.7583 0004013 291.3454  88.0563  2.13104787 66759
COSMOS 2432 (719)       
1 32276U 07052B   16144.46586296 -.00000009  00000-0  10000-3 0  9990
2 32276  65.3395  78.8338 0013816 335.5792 120.3331  2.13104247 66743
COSMOS 2434 (721)       
1 32393U 07065A   16144.48804307 -.00000025  00000-0  00000+0 0  9995
2 32393  65.2639 317.3186 0005963  96.8773 314.3947  2.13102814 65458
COSMOS 2436 (723)       
1 32395U 07065C   16144.58458368 -.00000024  00000-0  10000-3 0  9994
2 32395  65.2753 317.3574 0017421   1.2048 216.1451  2.13102852 65388
COSMOS 2443 (725)       
1 33379U 08046B   16145.45871586 -.00000003  00000-0  10000-3 0  9992
2 33379  65.2565  78.1542 0016064 189.5148 259.6095  2.13101407 59634
COSMOS 2456 (730)       
1 36111U 09070A   16145.13043009  .00000065  00000-0  00000+0 0  9995
2 36111  64.1814 196.8889 0005490 300.7757  52.7503  2.13102943 50129
COSMOS 2457 (733)       
1 36112U 09070B   16144.46355435  .00000067  00000-0  00000+0 0  9992
2 36112  64.1633 196.8395 0006772 180.2460 152.0428  2.13101568 50118
COSMOS 2458 (734)       
1 36113U 09070C   16145.43659308  .00000064  00000-0  10000-3 0  9999
2 36113  64.1689 196.8114 0001748 301.7583 104.5075  2.13102133 50145
COSMOS 2459 (731)       
1 36400U 10007A   16145.40782905 -.00000004  00000-0  10000-3 0  9992
2 36400  65.2359  77.8905 0030053 351.3161  18.9375  2.13102376 48495
COSMOS 2461 (735)       
1 36401U 10007B   16145.17193350 -.00000005  00000-0  10000-3 0  9998
2 36401  65.2287  77.8804 0006026  51.4129  48.4272  2.13102448 48482
COSMOS 2460 (732)       
1 36402U 10007C   16144.75127534 -.00000009  00000-0  10000-3 0  9997
2 36402  65.2185  77.8719 0002054 327.0858 211.9593  2.13101903 48470
COSMOS 2466 (738)       
1 37137U 10041A   16145.33622553 -.00000021  00000-0  10000-3 0  9991
2 37137  64.8445 317.4008 0019235 152.7135  55.9059  2.13110946 44560
COSMOS 2465 (737)       
1 37138U 10041B   16145.53248780 -.00000020  00000-0  00000+0 0  9994
2 37138  64.8622 317.4673 0035094 167.2183  10.8243  2.13094128 44569
COSMOS 2464 (736)       
1 37139U 10041C   16144.86408449 -.00000024  00000-0  00000+0 0  9994
2 37139  64.8689 317.4864 0023727  17.1989 190.2502  2.13102580 44554
COSMOS 2471 (701K)      
1 37372U 11009A   16144.46480145 -.00000011  00000-0  00000+0 0  9993
2 37372  65.2162  77.8309 0007900 246.4675 205.3193  2.13102784 40746
COSMOS 2474 (742)       
1 37829U 11055A   16144.46070716  .00000067  00000-0  00000+0 0  9990
2 37829  64.5057 197.3143 0009721 253.0602 168.1989  2.13101966 36115
COSMOS 2476 (744)       
1 37867U 11064A   16144.44592193  .00000067  00000-0  00000+0 0  9998
2 37867  64.4857 197.3964 0018587 247.7150 208.0310  2.13102090 35461
COSMOS 2477 (745)       
1 37868U 11064B   16144.69506772  .00000066  00000-0  00000+0 0  9993
2 37868  64.4939 197.4283 0016567 249.0736 217.1259  2.13101907 35424
COSMOS 2475 (743)       
1 37869U 11064C   16145.13114010  .00000065  00000-0  00000+0 0  9993
2 37869  64.5013 197.4012 0021956 274.1522 122.6981  2.13102030 35441
COSMOS 2478 (746)       
1 37938U 11071A   16145.33314865 -.00000004  00000-0  00000+0 0  9994
2 37938  65.2446  78.0233 0014032 245.5512 266.5193  2.13088475 35059
COSMOS 2485 (747)       
1 39155U 13019A   16144.73826326  .00000067  00000-0  00000+0 0  9992
2 39155  64.6552 197.3315 0018789 242.5716 122.5884  2.13102095 23943
COSMOS 2492 (754)       
1 39620U 14012A   16144.87031638 -.00000000  00000-0  18757+2 0  9990
2 39620  65.1076  77.8594 0017376 332.1663 167.4525  2.13103687 16890
COSMOS 2500 (755)       
1 40001U 14032A   16145.08867847 -.00000006  00000-0  00000+0 0  9996
2 40001  65.0479  77.8780 0005312 226.0412 304.8781  2.13103004 15116
COSMOS 2501 (702K)      
1 40315U 14075A   16145.13458862 -.00000023  00000-0  00000+0 0  9999
2 40315  64.6344 318.9412 0015957 233.2496 134.2143  2.13101523 11521
COSMOS 2514 (751)       
1 41330U 16008A   16145.14727031 -.00000006  00000-0  00000+0 0  9994
2 41330  64.8484  78.1180 0008741 229.2255 165.6157  2.13103543  2284
